{
  "norad_id": 59088,
  "name": "STARLINK-31313",
  "history": [
    {
      "epoch": "2026-03-28T17:18:45.751104Z",
      "apogee_km": 483.60774961349125,
      "perigee_km": 482.37411881091884,
      "latitude_deg": -2.271676534576703e-05,
      "longitude_deg": 117.26740263925194,
      "height_km": 483.12950731710174,
      "semi_major_axis_km": 6861.127934212204,
      "eccentricity": 8.99e-05,
      "inclination_deg": 43.0015,
      "raan_deg": 203.0958,
      "arg_perigee_deg": 234.0244,
      "mean_anomaly_deg": 126.0524,
      "mean_motion_rev_day": 15.27599424
    }
  ]
}