{"fetched_at":"2026-03-30T06:02:59Z","count":15439,"tles":[{"name":"STARLINK-31313","line1":"1 59088U 24041Q   26087.72136286  .00005314  00000+0  20235-3 0  9996","line2":"2 59088  43.0015 203.0958 0000899 234.0244 126.0524 15.27599424117183","category":"Starlink"}]}